const data = [
"1 24876U 97035A   22076.12507655  .00000023  00000+0  00000+0 0  9992",
"2 24876  55.4964 159.2755 0056302  52.7383 307.8233  2.00563509180803",
"1 26360U 00025A   22076.62164602  .00000024  00000+0  00000+0 0  9992",
"2 26360  53.9854  82.6591 0050606 183.2560 260.6190  2.00552059160139",
"1 26605U 00071A   22076.77305153  .00000031  00000+0  00000+0 0  9997",
"2 26605  55.0785 156.2823 0133037 253.3873  73.3551  2.00564180156378",
"1 27663U 03005A   22076.26359030  .00000033  00000+0  00000+0 0  9991",
"2 27663  55.5761 276.7192 0126330  40.2878 127.7070  2.00570008140161",
"1 27704U 03010A   22076.71780212 -.00000067  00000+0  00000+0 0  9991",
"2 27704  54.9912  27.0208 0247184 303.2053  52.1880  2.00575954138961",
"1 28190U 04009A   22076.61900250 -.00000054  00000+0  00000+0 0  9991",
"2 28190  56.0554 337.6647 0088522 116.3655 106.3405  2.00562141131808",
"1 28474U 04045A   22076.12126370 -.00000067  00000+0  00000+0 0  9999",
"2 28474  55.3198  27.1493 0208455 277.7482 213.5623  2.00569408127281",
"1 28874U 05038A   22076.52370029 -.00000051  00000+0  00000+0 0  9995",
"2 28874  56.1253 335.0985 0137747 274.4044 259.3867  2.00552237120694",
"1 29486U 06042A   22076.45823028  .00000013  00000+0  00000+0 0  9992",
"2 29486  54.7281 212.9304 0103675  20.7575  25.3134  2.00559725113252",
"1 29601U 06052A   22075.84203892  .00000035  00000+0  00000+0 0  9999",
"2 29601  55.5805 275.6702 0085006  71.7025 289.2492  2.00574070112250",
"1 32260U 07047A   22076.15190400  .00000033  00000+0  00000+0 0  9992",
"2 32260  53.2874 144.3683 0137433  61.4613 299.9899  2.00553734105667",
"1 32384U 07062A   22076.32453948 -.00000052  00000+0  00000+0 0  9996",
"2 32384  56.2416 335.8557 0017556 132.6800 122.6755  2.00556650104367",
"1 32711U 08012A   22076.06936350  .00000010  00000+0  00000+0 0  9993",
"2 32711  54.4864 211.9028 0158895 229.6122 128.9500  2.00562088102605",
"1 35752U 09043A   22076.27209868  .00000036  00000+0  00000+0 0  9994",
"2 35752  55.0017  89.2380 0056795  56.3777 108.2632  2.00562358 92216",
"1 36585U 10022A   22076.40439457  .00000033  00000+0  00000+0 0  9999",
"2 36585  54.8613 271.2307 0103584  56.0408 319.8005  2.00560594 86452",
"1 37753U 11036A   22076.55110264 -.00000058  00000+0  00000+0 0  9999",
"2 37753  56.5661  32.2822 0113970  49.9848 156.6737  2.00564790 78135",
"1 38833U 12053A   22076.74735461  .00000012  00000+0  00000+0 0  9991",
"2 38833  53.5394 207.1059 0122269  45.7627 315.1947  2.00560669 68304",
"1 39166U 13023A   22076.10857676 -.00000046  00000+0  00000+0 0  9990",
"2 39166  55.7565 331.5236 0102452  36.4001 324.3456  2.00566499 64739",
"1 39533U 14008A   22076.60042288  .00000013  00000+0  00000+0 0  9995",
"2 39533  53.6360 212.6080 0057350 205.8103 153.8610  2.00575500 58546",
"1 39741U 14026A   22075.88605174 -.00000060  00000+0  00000+0 0  9997",
"2 39741  56.5293  31.8341 0028759 304.5999  55.1176  2.00562518 57383",
"1 40105U 14045A   22076.47562850  .00000033  00000+0  00000+0 0  9992",
"2 40105  54.6701 150.4765 0019515 109.6966 250.5811  2.00571540 54938",
"1 40294U 14068A   22076.35077010  .00000041  00000+0  00000+0 0  9991",
"2 40294  55.7463  91.5726 0037590  52.0482 308.3512  2.00565117 54060",
"1 40534U 15013A   22076.48315052  .00000031  00000+0  00000+0 0  9993",
"2 40534  53.7635 268.5027 0068419  20.1013 340.1768  2.00558122 50685",
"1 40730U 15033A   22076.14799489 -.00000045  00000+0  00000+0 0  9992",
"2 40730  55.2573 330.3947 0073558   5.6233 354.5142  2.00556816 48840",
"1 41019U 15062A   22076.69495023  .00000040  00000+0  00000+0 0  9996",
"2 41019  55.7363  91.3997 0076892 218.0783 141.4333  2.00562990 46692",
"1 41328U 16007A   22076.29280811  .00000031  00000+0  00000+0 0  9992",
"2 41328  54.8901 151.1332 0059314 228.5720 130.9818  2.00574640 44692",
"1 43873U 18109A   22076.55777481  .00000032  00000+0  00000+0 0  9998",
"2 43873  55.0704 153.5218 0017820 194.4303 253.6204  2.00567105 23930",
"1 44506U 19056A   22077.28214211 -.00000058  00000+0  00000+0 0  9991",
"2 44506  55.6381  32.6756 0021333 183.1513 331.0722  2.00570785 18935",
"1 45854U 20041A   22076.40469638  .00000038  00000+0  00000+0 0  9999",
"2 45854  55.4529  89.9785 0019869 178.0883   0.8989  2.00560073 12899",
"1 46826U 20078A   22077.22112744  .00000029  00000+0  00000+0 0  9993",
"2 46826  54.6292 273.7945 0015561 181.8197 199.4831  2.00565966 10371",
"1 48859U 21054A   22076.68753022 -.00000057  00000+0  00000+0 0  9997",
"2 48859  55.1412  34.7441 0002886 207.5478 331.6496  2.00550901  5610",
];

export default data;
